STARLINK-2680_new
1 18432C 21040E   21326.18211808 -.00009412  00000-0 -63049-3 0  3268
2 18432  53.0555 347.9146 0001869  55.0797 345.5198 15.06414893    14
STARLINK-2680_old
1 28432C 21040E   21325.13316210 -.00001582  00000-0 -10601-3 0  3250
2 28432  53.0558 352.6235 0001842  54.8345  54.0878 15.06400930    10
